{"epoch":1784902576,"count":18312,"objects":[{"id":"43574","name":"IRIDIUM 154","type":"PAYLOAD","l1":"1 43574U 18061F   26204.99961125  .00000143  00000-0  43969-4 0  9998","l2":"2 43574  86.3939  41.4072 0002287  88.5409 271.6049 14.34218545418687"},{"id":"43575","name":"IRIDIUM 163","type":"PAYLOAD","l1":"1 43575U 18061G   26204.07359283  .00000107  00000-0  31110-4 0  9999","l2":"2 43575  86.3935  41.7086 0002114  88.0586 272.0852 14.34218370418528"},{"id":"43576","name":"IRIDIUM 156","type":"PAYLOAD","l1":"1 43576U 18061H   26205.09475006  .00000146  00000-0  45088-4 0  9997","l2":"2 43576  86.3936  41.2888 0002173  92.9018 267.2427 14.34218003418666"},{"id":"43577","name":"IRIDIUM 164","type":"PAYLOAD","l1":"1 43577U 18061J   26205.07572333  .00000012  00000-0 -26273-5 0  9996","l2":"2 43577  86.3938  41.3377 0002301  87.9192 272.2267 14.34217604418702"},{"id":"43578","name":"IRIDIUM 159","type":"PAYLOAD","l1":"1 43578U 18061K   26205.04400965  .00000053  00000-0  11884-4 0  9990","l2":"2 43578  86.3937  41.2871 0002077  87.4994 272.6440 14.34217815418661"},{"id":"43922","name":"IRIDIUM 180","type":"PAYLOAD","l1":"1 43922U 19002A   26205.32257997  .00000109  00000-0  31837-4 0  9997","l2":"2 43922  86.4000 338.0758 0002138  91.2289 268.9151 14.34218384394319"},{"id":"43923","name":"IRIDIUM 176","type":"PAYLOAD","l1":"1 43923U 19002B   26204.31792117  .00000690  00000-0  10558-3 0  9995","l2":"2 43923  86.6121 338.4337 0002343  91.9206 268.2279 14.72257327404562"},{"id":"43924","name":"IRIDIUM 168","type":"PAYLOAD","l1":"1 43924U 19002C   26204.33947755  .00000221  00000-0  71680-4 0  9992","l2":"2 43924  86.4002 338.5645 0002193  91.8841 268.2606 14.34219318394152"},{"id":"43925","name":"IRIDIUM 173","type":"PAYLOAD","l1":"1 43925U 19002D   26205.30355248 -.00000027  00000-0 -16542-4 0  9993","l2":"2 43925  86.3998 338.0495 0002042  93.2461 266.8969 14.34217386394273"},{"id":"43926","name":"IRIDIUM 169","type":"PAYLOAD","l1":"1 43926U 19002E   26204.97766592  .00000286  00000-0  87026-4 0  9994","l2":"2 43926  86.4231   9.8078 0002144 104.4274 255.7162 14.38602275395514"},{"id":"43927","name":"IRIDIUM 172","type":"PAYLOAD","l1":"1 43927U 19002F   26205.29720963 -.00000007  00000-0 -95814-5 0  9991","l2":"2 43927  86.3999 338.0602 0002078  92.3264 267.8170 14.34217605394286"},{"id":"43928","name":"IRIDIUM 175","type":"PAYLOAD","l1":"1 43928U 19002G   26205.22043311  .00000270  00000-0  73698-4 0  9995","l2":"2 43928  86.4502 275.0415 0005591  97.8733 262.3102 14.43630866404324"},{"id":"43929","name":"IRIDIUM 171","type":"PAYLOAD","l1":"1 43929U 19002H   26205.20841313  .00000221  00000-0  71704-4 0  9994","l2":"2 43929  86.4011 338.4073 0002292  94.8465 265.2993 14.34219108394261"},{"id":"43930","name":"IRIDIUM 170","type":"PAYLOAD","l1":"1 43930U 19002J   26205.07172922  .00000780  00000-0  11981-3 0  9994","l2":"2 43930  86.6120 338.1208 0002188  90.1556 269.9912 14.72259397404683"},{"id":"43931","name":"IRIDIUM 167","type":"PAYLOAD","l1":"1 43931U 19002K   26205.27183930  .00000207  00000-0  66691-4 0  9991","l2":"2 43931  86.4000 338.0931 0002415  98.0367 262.1103 14.34218423394274"},{"id":"56726","name":"IRIDIUM 181","type":"PAYLOAD","l1":"1 56726U 23068S   26205.26701256  .00000255  00000-0  69651-4 0  9992","l2":"2 56726  86.4474  41.2826 0002307  83.3300 276.8164 14.43310496167781"},{"id":"56727","name":"IRIDIUM 177","type":"PAYLOAD","l1":"1 56727U 23068T   26205.30447113  .00001077  00000-0  13883-3 0  9995","l2":"2 56727  86.1986 311.1715 0002275  98.0274 262.1206 14.80034424171853"},{"id":"56728","name":"IRIDIUM 174","type":"PAYLOAD","l1":"1 56728U 23068U   26205.33114056  .00000621  00000-0  94562-4 0  9994","l2":"2 56728  86.6126 338.1633 0001911  96.0588 264.0847 14.72254554171485"},{"id":"56729","name":"IRIDIUM 178","type":"PAYLOAD","l1":"1 56729U 23068V   26204.95547096  .00000842  00000-0  10795-3 0  9996","l2":"2 56729  86.6544   9.9931 0002285  92.1709 267.9774 14.80024183171800"},{"id":"56730","name":"IRIDIUM 179","type":"PAYLOAD","l1":"1 56730U 23068W   26205.01772735  .00000344  00000-0  42045-4 0  9997","l2":"2 56730  86.6773  19.0546 0002423  94.2399 265.9099 14.80026556171817"}]}