OBJECT_NAME,OBJECT_ID,EPOCH,MEAN_MOTION,ECCENTRICITY,INCLINATION,RA_OF_ASC_NODE,ARG_OF_PERICENTER,MEAN_ANOMALY,EPHEMERIS_TYPE,CLASSIFICATION_TYPE,NORAD_CAT_ID,ELEMENT_SET_NO,REV_AT_EPOCH,BSTAR,MEAN_MOTION_DOT,MEAN_MOTION_DDOT
IRIDIUM 154,2018-061F,2026-07-23T23:59:26.412000,14.34218545,.00022869,86.3939,41.4072,88.5409,271.6049,0,U,43574,999,41868,.43968994E-4,.143E-5,0
IRIDIUM 163,2018-061G,2026-07-23T01:45:58.420512,14.34218370,.00021143,86.3935,41.7086,88.0586,272.0852,0,U,43575,999,41852,.31109938E-4,.107E-5,0
IRIDIUM 156,2018-061H,2026-07-24T02:16:26.405184,14.34218003,.00021734,86.3936,41.2888,92.9018,267.2427,0,U,43576,999,41866,.4508789E-4,.146E-5,0
IRIDIUM 164,2018-061J,2026-07-24T01:49:02.495712,14.34217604,.00023015,86.3938,41.3377,87.9192,272.2267,0,U,43577,999,41870,-.2627313E-5,.12E-6,0
IRIDIUM 159,2018-061K,2026-07-24T01:03:22.433760,14.34217815,.00020773,86.3937,41.2871,87.4994,272.6440,0,U,43578,999,41866,.11883903E-4,.53E-6,0
IRIDIUM 180,2019-002A,2026-07-24T07:44:30.909408,14.34218384,.00021384,86.4000,338.0758,91.2289,268.9151,0,U,43922,999,39431,.31837103E-4,.109E-5,0
IRIDIUM 176,2019-002B,2026-07-23T07:37:48.389088,14.72257327,.0002343,86.6121,338.4337,91.9206,268.2279,0,U,43923,999,40456,.10558E-3,.69E-5,0
IRIDIUM 168,2019-002C,2026-07-23T08:08:50.860320,14.34219318,.0002193,86.4002,338.5645,91.8841,268.2606,0,U,43924,999,39415,.7168E-4,.221E-5,0
IRIDIUM 173,2019-002D,2026-07-24T07:17:06.934272,14.34217386,.00020423,86.3998,338.0495,93.2461,266.8969,0,U,43925,999,39427,-.16542132E-4,-.27E-6,0
IRIDIUM 169,2019-002E,2026-07-23T23:27:50.335488,14.38602275,.00021443,86.4231,9.8078,104.4274,255.7162,0,U,43926,999,39551,.87025844E-4,.286E-5,0
IRIDIUM 172,2019-002F,2026-07-24T07:07:58.912032,14.34217605,.00020778,86.3999,338.0602,92.3264,267.8170,0,U,43927,999,39428,-.9581381E-5,-.7E-7,0
IRIDIUM 175,2019-002G,2026-07-24T05:17:25.420704,14.43630866,.00055909,86.4502,275.0415,97.8733,262.3102,0,U,43928,999,40432,.73697856E-4,.27E-5,0
IRIDIUM 171,2019-002H,2026-07-24T05:00:06.894432,14.34219108,.00022924,86.4011,338.4073,94.8465,265.2993,0,U,43929,999,39426,.71704037E-4,.221E-5,0
IRIDIUM 170,2019-002J,2026-07-24T01:43:17.404608,14.72259397,.00021875,86.6120,338.1208,90.1556,269.9912,0,U,43930,999,40468,.1198096E-3,.78E-5,0
IRIDIUM 167,2019-002K,2026-07-24T06:31:26.915520,14.34218423,.00024151,86.4000,338.0931,98.0367,262.1103,0,U,43931,999,39427,.66690936E-4,.207E-5,0
IRIDIUM 181,2023-068S,2026-07-24T06:24:29.885184,14.43310496,.00023066,86.4474,41.2826,83.3300,276.8164,0,U,56726,999,16778,.69651123E-4,.255E-5,0
IRIDIUM 177,2023-068T,2026-07-24T07:18:26.305632,14.80034424,.00022746,86.1986,311.1715,98.0274,262.1206,0,U,56727,999,17185,.13883033E-3,.1077E-4,0
IRIDIUM 174,2023-068U,2026-07-24T07:56:50.544384,14.72254554,.00019114,86.6126,338.1633,96.0588,264.0847,0,U,56728,999,17148,.94562411E-4,.621E-5,0
IRIDIUM 178,2023-068V,2026-07-23T22:55:52.690944,14.80024183,.00022847,86.6544,9.9931,92.1709,267.9774,0,U,56729,999,17180,.10794729E-3,.842E-5,0
IRIDIUM 179,2023-068W,2026-07-24T00:25:31.643040,14.80026556,.00024231,86.6773,19.0546,94.2399,265.9099,0,U,56730,999,17181,.42045261E-4,.344E-5,0
